{
  "type": "FeatureCollection",
  "features": [
    {
      "type": "Feature",
      "properties": {
        "norad_id": 41330,
        "name": "COSMOS 2514 (751)",
        "group": "gnss",
        "lat": 22.1829956027448,
        "lon": 128.2170666406771,
        "alt_km": 19114.645469865576,
        "timestamp": "2025-12-20T16:47:36.528956+00:00",
        "meta_object_name": "COSMOS 2514 (751)",
        "meta_object_id": "2016-008A",
        "meta_epoch": "2025-12-20T00:39:53.034624",
        "meta_mean_motion": 2.13102672,
        "meta_eccentricity": 0.0011779,
        "meta_inclination": 65.1296,
        "meta_ra_of_asc_node": 319.1545,
        "meta_arg_of_pericenter": 220.1416,
        "meta_mean_anomaly": 139.763,
        "meta_ephemeris_type": 0,
        "meta_classification_type": "U",
        "meta_norad_cat_id": 41330,
        "meta_element_set_no": 999,
        "meta_rev_at_epoch": 7680,
        "meta_bstar": 0,
        "meta_mean_motion_dot": -5.4e-07,
        "meta_mean_motion_ddot": 0,
        "tle_line1": "1 41330U 16008A   25354.02769716 -.00000054  00000+0  00000+0 0  9991",
        "tle_line2": "2 41330  65.1296 319.1545 0011779 220.1416 139.7630  2.13102672 76805"
      },
      "geometry": {
        "type": "Point",
        "coordinates": [
          128.2170666406771,
          22.1829956027448
        ]
      }
    },
    {
      "type": "Feature",
      "properties": {
        "norad_id": 41384,
        "name": "IRNSS-1F",
        "group": "gnss",
        "lat": -4.890272020022758,
        "lon": 14.141848053593101,
        "alt_km": 35787.79687887904,
        "timestamp": "2025-12-20T16:47:36.528968+00:00",
        "meta_object_name": "IRNSS-1F",
        "meta_object_id": "2016-015A",
        "meta_epoch": "2025-12-19T23:41:22.009056",
        "meta_mean_motion": 1.00276206,
        "meta_eccentricity": 0.00226432,
        "meta_inclination": 4.8991,
        "meta_ra_of_asc_node": 101.1179,
        "meta_arg_of_pericenter": 181.5741,
        "meta_mean_anomaly": 193.9029,
        "meta_ephemeris_type": 0,
        "meta_classification_type": "U",
        "meta_norad_cat_id": 41384,
        "meta_element_set_no": 999,
        "meta_rev_at_epoch": 3587,
        "meta_bstar": 0,
        "meta_mean_motion_dot": 1.78e-06,
        "meta_mean_motion_ddot": 0,
        "tle_line1": "1 41384U 16015A   25353.98706029  .00000178  00000+0  00000+0 0  9996",
        "tle_line2": "2 41384   4.8991 101.1179 0022643 181.5741 193.9029  1.00276206 35877"
      },
      "geometry": {
        "type": "Point",
        "coordinates": [
          14.141848053593101,
          -4.890272020022758
        ]
      }
    },
    {
      "type": "Feature",
      "properties": {
        "norad_id": 41434,
        "name": "BEIDOU-2 IGSO-6 (C13)",
        "group": "gnss",
        "lat": 29.87348892783575,
        "lon": 59.2439480680752,
        "alt_km": 36026.59064462869,
        "timestamp": "2025-12-20T16:47:36.528980+00:00",
        "meta_object_name": "BEIDOU-2 IGSO-6 (C13)",
        "meta_object_id": "2016-021A",
        "meta_epoch": "2025-12-18T14:33:38.837664",
        "meta_mean_motion": 1.00292299,
        "meta_eccentricity": 0.00610054,
        "meta_inclination": 59.9732,
        "meta_ra_of_asc_node": 39.8392,
        "meta_arg_of_pericenter": 230.2031,
        "meta_mean_anomaly": 129.1398,
        "meta_ephemeris_type": 0,
        "meta_classification_type": "U",
        "meta_norad_cat_id": 41434,
        "meta_element_set_no": 999,
        "meta_rev_at_epoch": 3566,
        "meta_bstar": 0,
        "meta_mean_motion_dot": -1.41e-06,
        "meta_mean_motion_ddot": 0,
        "tle_line1": "1 41434U 16021A   25352.60669951 -.00000141  00000+0  00000+0 0  9990",
        "tle_line2": "2 41434  59.9732  39.8392 0061005 230.2031 129.1398  1.00292299 35667"
      },
      "geometry": {
        "type": "Point",
        "coordinates": [
          59.2439480680752,
          29.87348892783575
        ]
      }
    },
    {
      "type": "Feature",
      "properties": {
        "norad_id": 41469,
        "name": "IRNSS-1G",
        "group": "gnss",
        "lat": 0.7759827551472325,
        "lon": 110.92395735189346,
        "alt_km": 35776.16258472486,
        "timestamp": "2025-12-20T16:47:36.528992+00:00",
        "meta_object_name": "IRNSS-1G",
        "meta_object_id": "2016-027A",
        "meta_epoch": "2025-12-20T06:59:51.926208",
        "meta_mean_motion": 1.00276461,
        "meta_eccentricity": 0.0002602,
        "meta_inclination": 4.7528,
        "meta_ra_of_asc_node": 101.9029,
        "meta_arg_of_pericenter": 329.9579,
        "meta_mean_anomaly": 251.7338,
        "meta_ephemeris_type": 0,
        "meta_classification_type": "U",
        "meta_norad_cat_id": 41469,
        "meta_element_set_no": 999,
        "meta_rev_at_epoch": 3538,
        "meta_bstar": 0,
        "meta_mean_motion_dot": -3.14e-06,
        "meta_mean_motion_ddot": 0,
        "tle_line1": "1 41469U 16027A   25354.29157322 -.00000314  00000+0  00000+0 0  9997",
        "tle_line2": "2 41469   4.7528 101.9029 0002602 329.9579 251.7338  1.00276461 35383"
      },
      "geometry": {
        "type": "Point",
        "coordinates": [
          110.92395735189346,
          0.7759827551472325
        ]
      }
    },
    {
      "type": "Feature",
      "properties": {
        "norad_id": 41549,
        "name": "GSAT0211 (GALILEO 14)",
        "group": "gnss",
        "lat": 33.31305341160432,
        "lon": 19.382131407495965,
        "alt_km": 23224.46569658152,
        "timestamp": "2025-12-20T16:47:36.529003+00:00",
        "meta_object_name": "GSAT0211 (GALILEO 14)",
        "meta_object_id": "2016-030A",
        "meta_epoch": "2025-12-14T00:32:28.498848",
        "meta_mean_motion": 1.70473201,
        "meta_eccentricity": 0.000407,
        "meta_inclination": 55.1518,
        "meta_ra_of_asc_node": 226.7881,
        "meta_arg_of_pericenter": 16.5595,
        "meta_mean_anomaly": 343.5367,
        "meta_ephemeris_type": 0,
        "meta_classification_type": "U",
        "meta_norad_cat_id": 41549,
        "meta_element_set_no": 999,
        "meta_rev_at_epoch": 5951,
        "meta_bstar": 0,
        "meta_mean_motion_dot": 2.8e-07,
        "meta_mean_motion_ddot": 0,
        "tle_line1": "1 41549U 16030A   25348.02255207  .00000028  00000+0  00000+0 0  9996",
        "tle_line2": "2 41549  55.1518 226.7881 0004070  16.5595 343.5367  1.70473201 59512"
      },
      "geometry": {
        "type": "Point",
        "coordinates": [
          19.382131407495965,
          33.31305341160432
        ]
      }
    },
    {
      "type": "Feature",
      "properties": {
        "norad_id": 41550,
        "name": "GSAT0210 (GALILEO 13)",
        "group": "gnss",
        "lat": -16.351751916712423,
        "lon": -145.17279069303459,
        "alt_km": 23225.42571887986,
        "timestamp": "2025-12-20T16:47:36.529037+00:00",
        "meta_object_name": "GSAT0210 (GALILEO 13)",
        "meta_object_id": "2016-030B",
        "meta_epoch": "2025-12-18T23:20:38.714784",
        "meta_mean_motion": 1.70473668,
        "meta_eccentricity": 7.917e-05,
        "meta_inclination": 55.1496,
        "meta_ra_of_asc_node": 226.6499,
        "meta_arg_of_pericenter": 227.6007,
        "meta_mean_anomaly": 132.5002,
        "meta_ephemeris_type": 0,
        "meta_classification_type": "U",
        "meta_norad_cat_id": 41550,
        "meta_element_set_no": 999,
        "meta_rev_at_epoch": 5959,
        "meta_bstar": 0,
        "meta_mean_motion_dot": 6.5e-07,
        "meta_mean_motion_ddot": 0,
        "tle_line1": "1 41550U 16030B   25352.97267031  .00000065  00000+0  00000+0 0  9996",
        "tle_line2": "2 41550  55.1496 226.6499 0000791 227.6007 132.5002  1.70473668 59599"
      },
      "geometry": {
        "type": "Point",
        "coordinates": [
          -145.17279069303459,
          -16.351751916712423
        ]
      }
    },
    {
      "type": "Feature",
      "properties": {
        "norad_id": 41586,
        "name": "BEIDOU-2 G7 (C03)",
        "group": "gnss",
        "lat": 0.7508179329649003,
        "lon": 91.88990894148284,
        "alt_km": 35765.738878259195,
        "timestamp": "2025-12-20T16:47:36.529066+00:00",
        "meta_object_name": "BEIDOU-2 G7 (C03)",
        "meta_object_id": "2016-037A",
        "meta_epoch": "2025-12-19T15:57:04.317984",
        "meta_mean_motion": 1.00271972,
        "meta_eccentricity": 0.0005143,
        "meta_inclination": 1.7733,
        "meta_ra_of_asc_node": 67.8469,
        "meta_arg_of_pericenter": 2.9481,
        "meta_mean_anomaly": 7.4377,
        "meta_ephemeris_type": 0,
        "meta_classification_type": "U",
        "meta_norad_cat_id": 41586,
        "meta_element_set_no": 999,
        "meta_rev_at_epoch": 509,
        "meta_bstar": 0,
        "meta_mean_motion_dot": -3.3e-06,
        "meta_mean_motion_ddot": 0,
        "tle_line1": "1 41586U 16037A   25353.66463331 -.00000330  00000+0  00000+0 0  9996",
        "tle_line2": "2 41586   1.7733  67.8469 0005143   2.9481   7.4377  1.00271972  5095"
      },
      "geometry": {
        "type": "Point",
        "coordinates": [
          91.88990894148284,
          0.7508179329649003
        ]
      }
    }
  ]
}